OBJECT_NAME,OBJECT_ID,EPOCH,MEAN_MOTION,ECCENTRICITY,INCLINATION,RA_OF_ASC_NODE,ARG_OF_PERICENTER,MEAN_ANOMALY,EPHEMERIS_TYPE,CLASSIFICATION_TYPE,NORAD_CAT_ID,ELEMENT_SET_NO,REV_AT_EPOCH,BSTAR,MEAN_MOTION_DOT,MEAN_MOTION_DDOT
GAOFEN-3,2016-049A,2026-06-12T20:26:45.601152,14.42214308,.0001295,98.4013,171.7029,98.3950,261.7387,0,U,41727,999,51802,-.3202E-4,-.149E-5,0
SKYSAT-C4,2016-058B,2026-06-12T19:24:32.780736,15.48453820,.0001097,96.9173,185.7643,123.8914,236.2443,0,U,41771,999,54479,.32248E-3,.17048E-3,0
SKYSAT-C5,2016-058C,2026-06-12T01:58:50.007936,15.34397832,.00015841,97.0478,203.9505,349.6001,10.5210,0,U,41772,999,54296,.21574737E-3,.7112E-4,0
SKYSAT-C2,2016-058D,2026-06-12T00:04:24.080736,15.41953046,.00050146,97.0173,185.2931,82.1359,278.0458,0,U,41773,999,54425,.26905305E-3,.11377E-3,0
SKYSAT-C3,2016-058E,2026-06-12T01:13:44.219136,15.52319154,.00017466,96.9009,194.0967,85.4361,274.7093,0,U,41774,999,54531,.36317098E-3,.22038E-3,0
ALSAT-1B,2016-059C,2026-06-12T21:22:21.037728,14.72271766,.0007859,97.7751,172.8395,236.1802,123.8658,0,U,41785,999,51994,.64915E-4,.363E-5,0
PATHFINDER 1,2016-059E,2026-06-12T05:28:00.835680,14.67657930,.00274354,97.8167,162.7278,219.8560,140.0631,0,U,41787,999,51898,.10400912E-3,.548E-5,0
SCATSAT 1,2016-059H,2026-06-12T17:59:30.139296,14.79517166,.0053262,98.1191,227.4699,262.1877,97.3285,0,U,41790,999,10093,.14389E-3,.1044E-4,0
RESOURCESAT-2A,2016-074A,2026-06-12T20:20:55.913568,14.21613725,.0003362,98.7529,237.3875,91.5603,268.5960,0,U,41877,999,49368,-.64971E-4,-.187E-5,0
CARTOSAT-2D,2017-008A,2026-06-12T21:03:27.202752,15.19302703,.0003585,97.4115,223.2633,248.6061,111.4792,0,U,41948,999,51692,.21968E-3,.457E-4,0
SENTINEL-2B,2017-013A,2026-06-12T19:14:43.632096,14.30815693,.000118,98.5693,238.6380,85.3459,274.7859,0,U,42063,999,48401,.47516E-4,.81E-6,0
FORMOSAT-5,2017-049A,2026-06-12T18:39:07.824960,14.50897358,.0012708,98.2253,239.1848,96.4965,263.7677,0,U,42920,999,46603,.48046E-4,.146E-5,0
SENTINEL-5P,2017-064A,2026-06-12T19:57:43.013376,14.19518343,.0000982,98.7925,105.9939,83.8435,276.2853,0,U,42969,999,44894,.35307E-4,.3E-6,0
SKYSAT-C11,2017-068A,2026-06-11T22:02:24.099072,15.57622956,.000087,97.4339,311.5213,88.8932,271.2423,0,U,42987,999,48242,.33268148E-3,.24501E-3,0
SKYSAT-C10,2017-068B,2026-06-12T20:36:04.394880,15.34568821,.0001182,97.4493,300.6637,94.0485,266.0893,0,U,42988,999,48169,.28957E-3,.9619E-4,0
SKYSAT-C9,2017-068C,2026-06-12T19:47:45.851136,15.41457575,.0009198,97.4413,301.5230,146.7625,213.4201,0,U,42989,999,48208,.32566E-3,.13573E-3,0
SKYSAT-C8,2017-068D,2026-06-12T20:04:16.402080,15.36894208,.0001491,97.4510,300.4246,97.1019,263.0395,0,U,42990,999,48164,.293E-3,.10489E-3,0
SKYSAT-C7,2017-068E,2026-06-12T19:54:52.668864,15.36843293,.0007152,97.4521,301.4072,119.0649,241.1312,0,U,42991,999,48170,.30209E-3,.10807E-3,0
SKYSAT-C6,2017-068F,2026-06-12T20:12:28.785312,15.34138397,.0004235,97.4556,301.4052,148.8695,211.2800,0,U,42992,999,48165,.29023E-3,.9512E-4,0
CARTOSAT-2F,2018-004A,2026-06-12T20:40:15.985632,15.19179440,.0000379,97.4795,223.5379,276.5679,83.5512,0,U,43111,999,46667,.17067E-3,.3521E-4,0
SENTINEL-3B,2018-039A,2026-06-12T18:30:59.116320,14.26733871,.0000743,98.6250,231.3669,81.1909,278.9356,0,U,43437,999,42349,.61575E-4,.105E-5,0
GAOFEN-6,2018-048A,2026-06-12T20:52:26.283360,14.76592394,.0011464,97.8549,226.7291,181.5175,178.6002,0,U,43484,999,43275,.30432E-4,.163E-5,0
GAOFEN-11 01,2018-063A,2026-06-12T20:41:56.018688,15.55165075,.0003719,97.1299,230.7539,14.3712,345.7648,0,U,43585,999,43967,.23551E-3,.158E-3,0
ICESAT-2,2018-070A,2026-06-12T20:00:03.148128,15.28208075,.0005794,92.0071,289.8030,115.7168,244.4680,0,U,43613,999,43179,.38563E-3,.10603E-3,0
